{"type": "FeatureCollection", "features": [ {"type": "Feature", "properties": {"norad_id": 34375, "name": "IRIDIUM 33 DEB", "group": "iridium-33-debris", "lat": 58.28298664206752, "lon": -172.7680174426553, "alt_km": 786.9078934463087, "timestamp": "2025-12-15T20:48:54.269707+00:00", "meta": {"OBJECT_NAME": "IRIDIUM 33 DEB", "OBJECT_ID": "1997-051FT", "EPOCH": "2025-12-14T23:15:44.995392", "MEAN_MOTION": 14.17996114, "ECCENTRICITY": 0.01034399, "INCLINATION": 86.4325, "RA_OF_ASC_NODE": 181.8005, "ARG_OF_PERICENTER": 119.7401, "MEAN_ANOMALY": 38.4178, "EPHEMERIS_TYPE": 0, "CLASSIFICATION_TYPE": "U", "NORAD_CAT_ID": 34375, "ELEMENT_SET_NO": 999, "REV_AT_EPOCH": 86743, "BSTAR": 0.00043772689, "MEAN_MOTION_DOT": 9.64e-06, "MEAN_MOTION_DDOT": 0}, "tle": {"line1": "1 34375U 97051FT  25348.96927078  .00000964  00000+0  43773-3 0  9999", "line2": "2 34375  86.4325 181.8005 0103439 119.7401  38.4178 14.17996114867430"}}, "geometry": {"type": "Point", "coordinates": [-172.7680174426553, 58.28298664206752]}}, {"type": "Feature", "properties": {"norad_id": 34376, "name": "IRIDIUM 33 DEB", "group": "iridium-33-debris", "lat": -33.60598747926711, "lon": -172.40016012321576, "alt_km": 680.5545152499708, "timestamp": "2025-12-15T20:48:54.269718+00:00", "meta": {"OBJECT_NAME": "IRIDIUM 33 DEB", "OBJECT_ID": "1997-051FU", "EPOCH": "2025-12-14T19:12:49.184064", "MEAN_MOTION": 14.6260256, "ECCENTRICITY": 0.00274222, "INCLINATION": 86.2985, "RA_OF_ASC_NODE": 5.6136, "ARG_OF_PERICENTER": 159.8088, "MEAN_ANOMALY": 200.4214, "EPHEMERIS_TYPE": 0, "CLASSIFICATION_TYPE": "U", "NORAD_CAT_ID": 34376, "ELEMENT_SET_NO": 999, "REV_AT_EPOCH": 88037, "BSTAR": 0.00097473546, "MEAN_MOTION_DOT": 5e-05, "MEAN_MOTION_DDOT": 0}, "tle": {"line1": "1 34376U 97051FU  25348.80056926  .00005000  00000+0  97474-3 0  9991", "line2": "2 34376  86.2985   5.6136 0027422 159.8088 200.4214 14.62602560880371"}}, "geometry": {"type": "Point", "coordinates": [-172.40016012321576, -33.60598747926711]}}, {"type": "Feature", "properties": {"norad_id": 34486, "name": "IRIDIUM 33 DEB", "group": "iridium-33-debris", "lat": 83.11797649483091, "lon": 42.08750230313917, "alt_km": 562.9109836378748, "timestamp": "2025-12-15T20:48:54.269728+00:00", "meta": {"OBJECT_NAME": "IRIDIUM 33 DEB", "OBJECT_ID": "1997-051GB", "EPOCH": "2025-12-14T19:32:13.539840", "MEAN_MOTION": 14.9591553, "ECCENTRICITY": 0.00138725, "INCLINATION": 86.3934, "RA_OF_ASC_NODE": 11.0678, "ARG_OF_PERICENTER": 107.504, "MEAN_ANOMALY": 68.3575, "EPHEMERIS_TYPE": 0, "CLASSIFICATION_TYPE": "U", "NORAD_CAT_ID": 34486, "ELEMENT_SET_NO": 999, "REV_AT_EPOCH": 89017, "BSTAR": 0.0016186556, "MEAN_MOTION_DOT": 0.00018197, "MEAN_MOTION_DDOT": 0}, "tle": {"line1": "1 34486U 97051GB  25348.81404560  .00018197  00000+0  16187-2 0  9997", "line2": "2 34486  86.3934  11.0678 0013872 107.5040  68.3575 14.95915530890172"}}, "geometry": {"type": "Point", "coordinates": [42.08750230313917, 83.11797649483091]}}, {"type": "Feature", "properties": {"norad_id": 34487, "name": "IRIDIUM 33 DEB", "group": "iridium-33-debris", "lat": -47.72018346334757, "lon": -164.93627946403407, "alt_km": 762.497786616781, "timestamp": "2025-12-15T20:48:54.269738+00:00", "meta": {"OBJECT_NAME": "IRIDIUM 33 DEB", "OBJECT_ID": "1997-051GC", "EPOCH": "2025-12-14T19:37:15.285792", "MEAN_MOTION": 14.43218974, "ECCENTRICITY": 0.00328977, "INCLINATION": 86.3435, "RA_OF_ASC_NODE": 11.4828, "ARG_OF_PERICENTER": 121.8629, "MEAN_ANOMALY": 54.9106, "EPHEMERIS_TYPE": 0, "CLASSIFICATION_TYPE": "U", "NORAD_CAT_ID": 34487, "ELEMENT_SET_NO": 999, "REV_AT_EPOCH": 88278, "BSTAR": 0.00021232189, "MEAN_MOTION_DOT": 7.39e-06, "MEAN_MOTION_DDOT": 0}, "tle": {"line1": "1 34487U 97051GC  25348.81753803  .00000739  00000+0  21232-3 0  9996", "line2": "2 34487  86.3435  11.4828 0032897 121.8629  54.9106 14.43218974882780"}}, "geometry": {"type": "Point", "coordinates": [-164.93627946403407, -47.72018346334757]}}, {"type": "Feature", "properties": {"norad_id": 34488, "name": "IRIDIUM 33 DEB", "group": "iridium-33-debris", "lat": 86.32051500578078, "lon": 34.693954342393525, "alt_km": 461.41194662688304, "timestamp": "2025-12-15T20:48:54.269749+00:00", "meta": {"OBJECT_NAME": "IRIDIUM 33 DEB", "OBJECT_ID": "1997-051GD", "EPOCH": "2025-12-13T21:20:06.708192", "MEAN_MOTION": 15.29804687, "ECCENTRICITY": 0.00127774, "INCLINATION": 86.3232, "RA_OF_ASC_NODE": 305.2445, "ARG_OF_PERICENTER": 49.9187, "MEAN_ANOMALY": 310.3179, "EPHEMERIS_TYPE": 0, "CLASSIFICATION_TYPE": "U", "NORAD_CAT_ID": 34488, "ELEMENT_SET_NO": 999, "REV_AT_EPOCH": 89257, "BSTAR": 0.0047409619, "MEAN_MOTION_DOT": 0.00139416, "MEAN_MOTION_DDOT": 0}, "tle": {"line1": "1 34488U 97051GD  25347.88896653  .00139416  00000+0  47410-2 0  9994", "line2": "2 34488  86.3232 305.2445 0012777  49.9187 310.3179 15.29804687892573"}}, "geometry": {"type": "Point", "coordinates": [34.693954342393525, 86.32051500578078]}}, {"type": "Feature", "properties": {"norad_id": 34492, "name": "IRIDIUM 33 DEB", "group": "iridium-33-debris", "lat": 60.76194236243716, "lon": 147.03724053029293, "alt_km": 841.9720732774249, "timestamp": "2025-12-15T20:48:54.269759+00:00", "meta": {"OBJECT_NAME": "IRIDIUM 33 DEB", "OBJECT_ID": "1997-051GH", "EPOCH": "2025-12-14T05:35:02.651712", "MEAN_MOTION": 14.25773186, "ECCENTRICITY": 0.01889467, "INCLINATION": 86.4719, "RA_OF_ASC_NODE": 334.0254, "ARG_OF_PERICENTER": 233.3245, "MEAN_ANOMALY": 142.6912, "EPHEMERIS_TYPE": 0, "CLASSIFICATION_TYPE": "U", "NORAD_CAT_ID": 34492, "ELEMENT_SET_NO": 999, "REV_AT_EPOCH": 85080, "BSTAR": 0.00441868, "MEAN_MOTION_DOT": 0.00012689, "MEAN_MOTION_DDOT": 0}, "tle": {"line1": "1 34492U 97051GH  25348.23266958  .00012689  00000+0  44187-2 0  9998", "line2": "2 34492  86.4719 334.0254 0188946 233.3245 142.6912 14.25773186850808"}}, "geometry": {"type": "Point", "coordinates": [147.03724053029293, 60.76194236243716]}}, {"type": "Feature", "properties": {"norad_id": 34497, "name": "IRIDIUM 33 DEB", "group": "iridium-33-debris", "lat": 18.90434301529476, "lon": 52.34303715956164, "alt_km": 763.662529341047, "timestamp": "2025-12-15T20:48:54.269769+00:00", "meta": {"OBJECT_NAME": "IRIDIUM 33 DEB", "OBJECT_ID": "1997-051GN", "EPOCH": "2025-12-14T04:36:28.717920", "MEAN_MOTION": 14.27459582, "ECCENTRICITY": 0.00786328, "INCLINATION": 86.278, "RA_OF_ASC_NODE": 51.7811, "ARG_OF_PERICENTER": 334.8541, "MEAN_ANOMALY": 79.7978, "EPHEMERIS_TYPE": 0, "CLASSIFICATION_TYPE": "U", "NORAD_CAT_ID": 34497, "ELEMENT_SET_NO": 999, "REV_AT_EPOCH": 86904, "BSTAR": 0.00073972606, "MEAN_MOTION_DOT": 1.894e-05, "MEAN_MOTION_DDOT": 0}, "tle": {"line1": "1 34497U 97051GN  25348.19199905  .00001894  00000+0  73973-3 0  9997", "line2": "2 34497  86.2780  51.7811 0078632 334.8541  79.7978 14.27459582869048"}}, "geometry": {"type": "Point", "coordinates": [52.34303715956164, 18.90434301529476]}}, {"type": "Feature", "properties": {"norad_id": 34508, "name": "IRIDIUM 33 DEB", "group": "iridium-33-debris", "lat": -59.473501767621364, "lon": 95.1372845009892, "alt_km": 805.6387508234602, "timestamp": "2025-12-15T20:48:54.269779+00:00", "meta": {"OBJECT_NAME": "IRIDIUM 33 DEB", "OBJECT_ID": "1997-051GZ", "EPOCH": "2025-12-14T20:03:08.871840", "MEAN_MOTION": 14.38447206, "ECCENTRICITY": 0.00662823, "INCLINATION": 86.3701, "RA_OF_ASC_NODE": 101.7548, "ARG_OF_PERICENTER": 166.2029, "MEAN_ANOMALY": 194.1001, "EPHEMERIS_TYPE": 0, "CLASSIFICATION_TYPE": "U", "NORAD_CAT_ID": 34508, "ELEMENT_SET_NO": 999, "REV_AT_EPOCH": 87339, "BSTAR": 0.0010114018, "MEAN_MOTION_DOT": 3.185e-05, "MEAN_MOTION_DDOT": 0}, "tle": {"line1": "1 34508U 97051GZ  25348.83551935  .00003185  00000+0  10114-2 0  9998", "line2": "2 34508  86.3701 101.7548 0066282 166.2029 194.1001 14.38447206873398"}}, "geometry": {"type": "Point", "coordinates": [95.1372845009892, -59.473501767621364]}}, {"type": "Feature", "properties": {"norad_id": 34521, "name": "IRIDIUM 33 DEB", "group": "iridium-33-debris", "lat": 37.865500258279575, "lon": 31.992769181383842, "alt_km": 680.7457501575036, "timestamp": "2025-12-15T20:48:54.269789+00:00", "meta": {"OBJECT_NAME": "IRIDIUM 33 DEB", "OBJECT_ID": "1997-051HN", "EPOCH": "2025-12-14T15:06:09.043776", "MEAN_MOTION": 14.63387845, "ECCENTRICITY": 0.00017707, "INCLINATION": 86.3804, "RA_OF_ASC_NODE": 29.7165, "ARG_OF_PERICENTER": 204.6186, "MEAN_ANOMALY": 155.4942, "EPHEMERIS_TYPE": 0, "CLASSIFICATION_TYPE": "U", "NORAD_CAT_ID": 34521, "ELEMENT_SET_NO": 999, "REV_AT_EPOCH": 88500, "BSTAR": 0.00071495882, "MEAN_MOTION_DOT": 3.716e-05, "MEAN_MOTION_DDOT": 0}, "tle": {"line1": "1 34521U 97051HN  25348.62927134  .00003716  00000+0  71496-3 0  9999", "line2": "2 34521  86.3804  29.7165 0001770 204.6186 155.4942 14.63387845885008"}}, "geometry": {"type": "Point", "coordinates": [31.992769181383842, 37.865500258279575]}}, {"type": "Feature", "properties": {"norad_id": 34525, "name": "IRIDIUM 33 DEB", "group": "iridium-33-debris", "lat": -13.271388544896983, "lon": 44.65185771479072, "alt_km": 754.337459959228, "timestamp": "2025-12-15T20:48:54.269799+00:00", "meta": {"OBJECT_NAME": "IRIDIUM 33 DEB", "OBJECT_ID": "1997-051HS", "EPOCH": "2025-12-14T22:24:28.051200", "MEAN_MOTION": 14.42910535, "ECCENTRICITY": 0.00066074, "INCLINATION": 86.3728, "RA_OF_ASC_NODE": 45.9075, "ARG_OF_PERICENTER": 90.0791, "MEAN_ANOMALY": 90.146, "EPHEMERIS_TYPE": 0, "CLASSIFICATION_TYPE": "U", "NORAD_CAT_ID": 34525, "ELEMENT_SET_NO": 999, "REV_AT_EPOCH": 88119, "BSTAR": 0.00036871776, "MEAN_MOTION_DOT": 1.252e-05, "MEAN_MOTION_DDOT": 0}, "tle": {"line1": "1 34525U 97051HS  25348.93365800  .00001252  00000+0  36872-3 0  9995", "line2": "2 34525  86.3728  45.9075 0006607  90.0791  90.1460 14.42910535881191"}}, "geometry": {"type": "Point", "coordinates": [44.65185771479072, -13.271388544896983]}}]}